NORAD_CAT_ID,OBJECT_NAME,OBJECT_TYPE,EPOCH,MEAN_MOTION,ECCENTRICITY,INCLINATION,RA_OF_ASC_NODE,ARG_OF_PERICENTER,MEAN_ANOMALY,BSTAR,MEAN_MOTION_DOT,MEAN_MOTION_DDOT,TLE_LINE0,TLE_LINE1,TLE_LINE2,SEMIMAJOR_AXIS,PERIOD,APOGEE,PERIGEE,DECAYED
52533.0,STARLINK-3951,PAYLOAD,2022-12-23 17:19:20,15.08838952,0.0002967,53.2183,350.2959,25.7631,334.3508,0.00014479,2.017e-05,0.0,0 STARLINK-3951,1 52533U 22051A   22357.72176488  .00002017  00000-0  14479-3 0  9998,2 52533  53.2183 350.2959 0002967  25.7631 334.3508 15.08838952 34511,6917.884,95.438,541.8009999999998,537.696,0.0
52533.0,STARLINK-3951,PAYLOAD,2022-12-24 06:02:25,15.08843318,0.0002923,53.2178,347.9171,26.0296,334.0843,9.7317e-05,1.261e-05,0.0,0 STARLINK-3951,1 52533U 22051A   22358.25168335  .00001261  00000-0  97317-4 0  9992,2 52533  53.2178 347.9171 0002923  26.0296 334.0843 15.08843318 34664,6917.87,95.437,541.757,537.7130000000002,0.0
52533.0,STARLINK-3951,PAYLOAD,2022-12-24 10:48:35,15.08840136,0.0002869,53.2174,347.0222,31.2264,328.8898,-3.2385000000000013e-06,-3.4e-06,0.0,0 STARLINK-3951,1 52533U 22051A   22358.45040766 -.00000340  00000-0 -32385-5 0  9995,2 52533  53.2174 347.0222 0002869  31.2264 328.8898 15.08840136 34622,6917.88,95.438,541.73,537.76,0.0
52533.0,STARLINK-3951,PAYLOAD,2022-12-25 09:03:59,15.08837947,0.0002885,53.2175,342.8593,29.1307,330.9845,-1.7265e-05,-5.63e-06,0.0,0 STARLINK-3951,1 52533U 22051A   22359.37776744 -.00000563  00000-0 -17265-4 0  9995,2 52533  53.2175 342.8593 0002885  29.1307 330.9845 15.08837947 34766,6917.887,95.438,541.747,537.756,0.0
52533.0,STARLINK-3951,PAYLOAD,2022-12-26 07:19:23,15.08832956,0.0002872,53.2163,338.69699999999995,27.5552,332.5591,-2.8197e-05,-7.37e-06,0.0,0 STARLINK-3951,1 52533U 22051A   22360.30513245 -.00000737  00000-0 -28197-4 0  9994,2 52533  53.2163 338.6970 0002872  27.5552 332.5591 15.08832956 34902,6917.901999999999,95.438,541.754,537.78,0.0
52533.0,STARLINK-3951,PAYLOAD,2022-12-26 21:37:52,15.08819089,0.0002459,53.2175,336.0238,23.1764,336.9338,2.6892e-05,1.39e-06,0.0,0 STARLINK-3951,1 52533U 22051A   22360.90130329  .00000139  00000-0  26892-4 0  9992,2 52533  53.2175 336.0238 0002459  23.1764 336.9338 15.08819089 35069,6917.944,95.439,541.51,538.1080000000002,0.0
52533.0,STARLINK-3951,PAYLOAD,2022-12-27 08:45:34,15.08825785,0.0002933,53.217,333.9402,32.6741,327.4432,-1.7244e-05,-5.63e-06,0.0,0 STARLINK-3951,1 52533U 22051A   22361.36498500 -.00000563  00000-0 -17244-4 0  9995,2 52533  53.2170 333.9402 0002933  32.6741 327.4432 15.08825785 35138,6917.924,95.438,541.818,537.76,0.0
52533.0,STARLINK-3951,PAYLOAD,2022-12-27 23:04:01,15.08848867,0.0002807,53.218,331.2637,30.1349,329.9804,0.00014472,2.016e-05,0.0,0 STARLINK-3951,1 52533U 22051A   22361.96112674  .00002016  00000-0  14472-3 0  9998,2 52533  53.2180 331.2637 0002807  30.1349 329.9804 15.08848867 35223,6917.853,95.437,541.66,537.776,0.0
52533.0,STARLINK-3951,PAYLOAD,2022-12-28 07:00:57,15.08843439,0.0002676,53.218,329.7766,32.1045,328.011,9.6578e-05,1.249e-05,0.0,0 STARLINK-3951,1 52533U 22051A   22362.29233045  .00001249  00000-0  96578-4 0  9996,2 52533  53.2180 329.7766 0002676  32.1045 328.0110 15.08843439 35205,6917.87,95.437,541.586,537.884,0.0
52533.0,STARLINK-3951,PAYLOAD,2022-12-28 21:19:26,15.08826008,0.0002643,53.2182,327.101,34.3655,325.7508,0.00011413,1.528e-05,0.0,0 STARLINK-3951,1 52533U 22051A   22362.88850304  .00001528  00000-0  11413-3 0  9998,2 52533  53.2182 327.1010 0002643  34.3655 325.7508 15.08826008 35361,6917.9230000000025,95.438,541.617,537.96,0.0
52533.0,STARLINK-3951,PAYLOAD,2022-12-29 06:51:45,15.08827622,0.0002746,53.217,325.3155,33.5033,326.6133,4.906e-05,4.92e-06,0.0,0 STARLINK-3951,1 52533U 22051A   22363.28594778  .00000492  00000-0  49060-4 0  9992,2 52533  53.2170 325.3155 0002746  33.5033 326.6133 15.08827622 35359,6917.918000000002,95.438,541.683,537.884,0.0
52533.0,STARLINK-3951,PAYLOAD,2022-12-30 03:31:46,15.08840575,0.0002953999999999,53.2174,321.451,21.629,338.4827,-1.0649e-05,-4.58e-06,0.0,0 STARLINK-3951,1 52533U 22051A   22364.14706589 -.00000458  00000-0 -10649-4 0  9998,2 52533  53.2174 321.4510 0002954  21.6290 338.4827 15.08840575 35554,6917.879,95.438,541.7869999999998,537.7,0.0
52533.0,STARLINK-3951,PAYLOAD,2022-12-30 06:42:32,15.08842865,0.0002755,53.216,320.8542,35.0377,325.0796,7.6233e-06,-1.67e-06,0.0,0 STARLINK-3951,1 52533U 22051A   22364.27954334 -.00000167  00000-0  76233-5 0  9993,2 52533  53.2160 320.8542 0002755  35.0377 325.0796 15.08842865 35507,6917.871999999999,95.437,541.643,537.831,0.0
52533.0,STARLINK-3951,PAYLOAD,2022-12-30 14:39:26,15.08854981,0.0002529999999999,53.2192,319.3643,32.8763,327.2386,0.0001657,2.351e-05,0.0,0 STARLINK-3951,1 52533U 22051A   22364.61072804  .00002351  00000-0  16570-3 0  9996,2 52533  53.2192 319.3643 0002530  32.8763 327.2386 15.08854981 35626,6917.835,95.437,541.45,537.9490000000002,0.0
52533.0,STARLINK-3951,PAYLOAD,2022-12-31 06:33:16,15.08861421,0.0003328999999999,53.2159,316.3986,32.4336,327.686,0.00036569,5.539999999999999e-05,0.0,0 STARLINK-3951,1 52533U 22051A   22365.27311332  .00005540  00000-0  36569-3 0  9994,2 52533  53.2159 316.3986 0003329  32.4336 327.6860 15.08861421 35724,6917.815,95.436,541.9830000000002,537.377,0.0
52533.0,STARLINK-3951,PAYLOAD,2022-12-31 14:30:12,15.08854098,0.0002895,53.2165,314.9085,32.8277,327.2894,0.00029112,4.35e-05,0.0,0 STARLINK-3951,1 52533U 22051A   22365.60431592  .00004350  00000-0  29112-3 0  9996,2 52533  53.2165 314.9085 0002895  32.8277 327.2894 15.08854098 35770,6917.837,95.437,541.705,537.7,0.0
52533.0,STARLINK-3951,PAYLOAD,2023-01-01 06:24:06,15.08829722,0.000246,53.2176,311.9331,31.1967,328.9171,-0.00015218,-2.709e-05,0.0,0 STARLINK-3951,1 52533U 22051A   23001.26674126 -.00002709  00000-0 -15218-3 0  9998,2 52533  53.2176 311.9331 0002460  31.1967 328.9171 15.08829722 35872,6917.9119999999975,95.438,541.479,538.075,0.0
52533.0,STARLINK-3951,PAYLOAD,2023-01-01 20:42:35,15.08831339,0.0002458,53.216,309.258,32.208,327.9062,-0.00032032,-5.382e-05,0.0,0 STARLINK-3951,1 52533U 22051A   23001.86290700 -.00005382  00000-0 -32032-3 0  9999,2 52533  53.2160 309.2580 0002458  32.2080 327.9062 15.08831339 35893,6917.906999999997,95.438,541.472,538.071,0.0
52533.0,STARLINK-3951,PAYLOAD,2023-01-02 06:14:53,15.08839759,0.0002755,53.217,307.4739,29.6845,330.4303,-0.00023694,-4.058e-05,0.0,0 STARLINK-3951,1 52533U 22051A   23002.26034094 -.00004058  00000-0 -23694-3 0  9999,2 52533  53.2170 307.4739 0002755  29.6845 330.4303 15.08839759 36026,6917.880999999999,95.438,541.6519999999998,537.84,0.0
52533.0,STARLINK-3951,PAYLOAD,2023-01-02 20:33:21,15.08833298,0.0002379,53.2173,304.7976,28.904,331.2083,0.00010224,1.339e-05,0.0,0 STARLINK-3951,1 52533U 22051A   23002.85649556  .00001339  00000-0  10224-3 0  9991,2 52533  53.2173 304.7976 0002379  28.9040 331.2083 15.08833298 36041,6917.901,95.438,541.4119999999998,538.12,0.0
52533.0,STARLINK-3951,PAYLOAD,2023-01-03 12:27:12,15.08844788,0.0002435999999999,53.2166,301.8239,31.0817,329.0319,0.00044225,6.758e-05,0.0,0 STARLINK-3951,1 52533U 22051A   23003.51889828  .00006758  00000-0  44225-3 0  9991,2 52533  53.2166 301.8239 0002436  31.0817 329.0319 15.08844788 36216,6917.866,95.437,541.4159999999998,538.0459999999998,0.0
52533.0,STARLINK-3951,PAYLOAD,2023-01-04 02:45:41,15.08841399,0.0002231999999999,53.2164,299.1485,32.9783,327.1348,0.00024876,3.673e-05,0.0,0 STARLINK-3951,1 52533U 22051A   23004.11505981  .00003673  00000-0  24876-3 0  9996,2 52533  53.2164 299.1485 0002232  32.9783 327.1348 15.08841399 36308,6917.876,95.437,541.285,538.197,0.0
52533.0,STARLINK-3951,PAYLOAD,2023-01-04 12:18:00,15.08836783,0.0002283,53.216,297.3638,34.0651,326.0488,3.7722e-05,3.12e-06,0.0,0 STARLINK-3951,1 52533U 22051A   23004.51250195  .00000312  00000-0  37722-4 0  9996,2 52533  53.2160 297.3638 0002283  34.0651 326.0488 15.08836783 36299,6917.89,95.438,541.335,538.1759999999998,0.0
52533.0,STARLINK-3951,PAYLOAD,2023-01-05 07:22:36,15.08879043,0.0002383,53.2163,293.7947,40.0222,320.0945,0.0012606,0.00019853,0.0,0 STARLINK-3951,1 52533U 22051A   23005.30736511  .00019853  00000-0  12606-2 0  9997,2 52533  53.2163 293.7947 0002383  40.0222 320.0945 15.08879043 36486,6917.761,95.435,541.275,537.9780000000002,0.0
52533.0,STARLINK-3951,PAYLOAD,2023-01-05 12:08:46,15.08821929,0.0001911,53.2163,292.9029,47.2569,312.8584,-0.00076926,-0.00012504,0.0,0 STARLINK-3951,1 52533U 22051A   23005.50609597 -.00012504  00000-0 -76926-3 0  9996,2 52533  53.2163 292.9029 0001911  47.2569 312.8584 15.08821929 36519,6917.936,95.439,541.123,538.479,0.0
52533.0,STARLINK-3951,PAYLOAD,2023-01-06 11:59:34,15.08825759,0.0001654,53.216,288.4426,62.2515,297.8644,0.00060736,9.388e-05,0.0,0 STARLINK-3951,1 52533U 22051A   23006.49970745  .00009388  00000-0  60736-3 0  9997,2 52533  53.2160 288.4426 0001654  62.2515 297.8644 15.08825759 36669,6917.924,95.438,540.933,538.645,0.0
52533.0,STARLINK-3951,PAYLOAD,2023-01-06 18:21:07,15.08830807,0.0002522,53.2154,287.2537,67.5165,292.6094,0.0013581,0.00021387,0.0,0 STARLINK-3951,1 52533U 22051A   23006.76467563  .00021387  00000-0  13581-2 0  9994,2 52533  53.2154 287.2537 0002522  67.5165 292.6094 15.08830807 36635,6917.908,95.438,541.518,538.029,0.0
52533.0,STARLINK-3951,PAYLOAD,2023-01-07 03:53:26,15.08831645,0.0001944,53.215,285.4695,64.1143,296.005,0.0011673,0.00018334,0.0,0 STARLINK-3951,1 52533U 22051A   23007.16211789  .00018334  00000-0  11673-2 0  9994,2 52533  53.2150 285.4695 0001944  64.1143 296.0050 15.08831645 36699,6917.906,95.438,541.116,538.4259999999998,0.0
52533.0,STARLINK-3951,PAYLOAD,2023-01-07 18:11:55,15.08840129,0.0002137,53.2137,282.7948,62.2832,297.8377,0.0007659,0.00011922,0.0,0 STARLINK-3951,1 52533U 22051A   23007.75828105  .00011922  00000-0  76590-3 0  9991,2 52533  53.2137 282.7948 0002137  62.2832 297.8377 15.08840129 36850,6917.88,95.438,541.2230000000002,538.2669999999998,0.0
